ONEWEB-0184             
1 48211U 21031B   26099.03707164 -.00000019  00000+0 -86402-4 0  9992
2 48211  87.8947 303.4966 0002436  76.9856 283.1546 13.14500878239200
ONEWEB-0179             
1 48212U 21031C   26099.01289398  .00000076  00000+0  68382-4 0  9993
2 48212  87.8937 303.2129 0001179  45.1904 314.9354 13.71507123239319
ONEWEB-0180             
1 48213U 21031D   26099.04024218 -.00000049  00000+0 -16576-3 0  9994
2 48213  87.8938 303.4972 0001714  75.9207 284.2113 13.14500863239134
ONEWEB-0218             
1 48214U 21031E   26098.98633028 -.00000025  00000+0 -10280-3 0  9992
2 48214  87.8935 303.5062 0002258  64.4667 295.6696 13.14501583239288
ONEWEB-0209             
1 48215U 21031F   26098.97522319 -.00000197  00000+0 -56571-3 0  9995
2 48215  87.8927 303.5327 0001573  81.3865 278.7443 13.14501126239286
ONEWEB-0198             
1 48216U 21031G   26099.03562741  .00000022  00000+0  24158-4 0  9999
2 48216  87.8931 303.5210 0001800  72.6878 287.4449 13.14501199239400
ONEWEB-0189             
1 48217U 21031H   26098.97205131 -.00000158  00000+0 -46119-3 0  9991
2 48217  87.8934 303.5121 0001793  76.4106 283.7224 13.14500602239130
ONEWEB-0196             
1 48218U 21031J   26099.02598335  .00000180  00000+0  45209-3 0  9992
2 48218  87.8938 303.5119 0001688  81.8505 278.2816 13.14501762239143
ONEWEB-0183             
1 48219U 21031K   26099.00059859  .00000135  00000+0  32894-3 0  9990
2 48219  87.8933 303.5164 0001493  90.5992 269.5309 13.14502075239238
ONEWEB-0185             
1 48220U 21031L   26098.95064705  .00000188  00000+0  47301-3 0  9998
2 48220  87.8935 303.5133 0001297  81.0755 279.0522 13.14503768239156
ONEWEB-0187             
1 48221U 21031M   26099.00680328  .00000163  00000+0  40398-3 0  9993
2 48221  87.8922 303.5302 0001557  79.5406 280.5899 13.14500905239171
ONEWEB-0192             
1 48222U 21031N   26098.97680719 -.00000184  00000+0 -53079-3 0  9998
2 48222  87.8920 303.5250 0001767  84.8076 275.3256 13.14500993239083
ONEWEB-0219             
1 48223U 21031P   26099.03231725  .00000028  00000+0  41318-4 0  9995
2 48223  87.8936 303.5022 0001495  81.4219 278.7080 13.14501563239297
ONEWEB-0202             
1 48224U 21031Q   26099.01329688  .00000279  00000+0  71878-3 0  9991
2 48224  87.8935 303.5152 0002193  73.3513 286.7857 13.14502235239270
ONEWEB-0204             
1 48225U 21031R   26098.97126524 -.00000141  00000+0 -41351-3 0  9993
2 48225  87.8940 303.5183 0001415  92.7247 267.4044 13.14501867239168
ONEWEB-0205             
1 48226U 21031S   26098.94668378  .00000235  00000+0  60020-3 0  9995
2 48226  87.8936 303.5145 0001558  82.9800 277.1507 13.14501279239176
