[{"OBJECT_NAME":"ONEWEB-0184","OBJECT_ID":"2021-031B","EPOCH":"2026-04-09T00:53:22.989696","MEAN_MOTION":13.14500878,"ECCENTRICITY":0.0002436,"INCLINATION":87.8947,"RA_OF_ASC_NODE":303.4966,"ARG_OF_PERICENTER":76.9856,"MEAN_ANOMALY":283.1546,"EPHEMERIS_TYPE":0,"CLASSIFICATION_TYPE":"U","NORAD_CAT_ID":48211,"ELEMENT_SET_NO":999,"REV_AT_EPOCH":23920,"BSTAR":-8.6402e-05,"MEAN_MOTION_DOT":-1.9e-07,"MEAN_MOTION_DDOT":0.0},{"OBJECT_NAME":"ONEWEB-0179","OBJECT_ID":"2021-031C","EPOCH":"2026-04-09T00:18:34.039872","MEAN_MOTION":13.71507123,"ECCENTRICITY":0.0001179,"INCLINATION":87.8937,"RA_OF_ASC_NODE":303.2129,"ARG_OF_PERICENTER":45.1904,"MEAN_ANOMALY":314.9354,"EPHEMERIS_TYPE":0,"CLASSIFICATION_TYPE":"U","NORAD_CAT_ID":48212,"ELEMENT_SET_NO":999,"REV_AT_EPOCH":23931,"BSTAR":6.8382e-05,"MEAN_MOTION_DOT":7.6e-07,"MEAN_MOTION_DDOT":0.0},{"OBJECT_NAME":"ONEWEB-0180","OBJECT_ID":"2021-031D","EPOCH":"2026-04-09T00:57:56.924352","MEAN_MOTION":13.14500863,"ECCENTRICITY":0.0001714,"INCLINATION":87.8938,"RA_OF_ASC_NODE":303.4972,"ARG_OF_PERICENTER":75.9207,"MEAN_ANOMALY":284.2113,"EPHEMERIS_TYPE":0,"CLASSIFICATION_TYPE":"U","NORAD_CAT_ID":48213,"ELEMENT_SET_NO":999,"REV_AT_EPOCH":23913,"BSTAR":-0.00016575999999999999,"MEAN_MOTION_DOT":-4.9e-07,"MEAN_MOTION_DDOT":0.0},{"OBJECT_NAME":"ONEWEB-0218","OBJECT_ID":"2021-031E","EPOCH":"2026-04-08T23:40:18.936192","MEAN_MOTION":13.14501583,"ECCENTRICITY":0.0002258,"INCLINATION":87.8935,"RA_OF_ASC_NODE":303.5062,"ARG_OF_PERICENTER":64.4667,"MEAN_ANOMALY":295.6696,"EPHEMERIS_TYPE":0,"CLASSIFICATION_TYPE":"U","NORAD_CAT_ID":48214,"ELEMENT_SET_NO":999,"REV_AT_EPOCH":23928,"BSTAR":-0.0001028,"MEAN_MOTION_DOT":-2.5e-07,"MEAN_MOTION_DDOT":0.0},{"OBJECT_NAME":"ONEWEB-0209","OBJECT_ID":"2021-031F","EPOCH":"2026-04-08T23:24:19.283616","MEAN_MOTION":13.14501126,"ECCENTRICITY":0.0001573,"INCLINATION":87.8927,"RA_OF_ASC_NODE":303.5327,"ARG_OF_PERICENTER":81.3865,"MEAN_ANOMALY":278.7443,"EPHEMERIS_TYPE":0,"CLASSIFICATION_TYPE":"U","NORAD_CAT_ID":48215,"ELEMENT_SET_NO":999,"REV_AT_EPOCH":23928,"BSTAR":-0.0005657100000000001,"MEAN_MOTION_DOT":-1.97e-06,"MEAN_MOTION_DDOT":0.0},{"OBJECT_NAME":"ONEWEB-0198","OBJECT_ID":"2021-031G","EPOCH":"2026-04-09T00:51:18.208224","MEAN_MOTION":13.14501199,"ECCENTRICITY":0.00018,"INCLINATION":87.8931,"RA_OF_ASC_NODE":303.521,"ARG_OF_PERICENTER":72.6878,"MEAN_ANOMALY":287.4449,"EPHEMERIS_TYPE":0,"CLASSIFICATION_TYPE":"U","NORAD_CAT_ID":48216,"ELEMENT_SET_NO":999,"REV_AT_EPOCH":23940,"BSTAR":2.4158e-05,"MEAN_MOTION_DOT":2.2e-07,"MEAN_MOTION_DDOT":0.0},{"OBJECT_NAME":"ONEWEB-0189","OBJECT_ID":"2021-031H","EPOCH":"2026-04-08T23:19:45.233184","MEAN_MOTION":13.14500602,"ECCENTRICITY":0.0001793,"INCLINATION":87.8934,"RA_OF_ASC_NODE":303.5121,"ARG_OF_PERICENTER":76.4106,"MEAN_ANOMALY":283.7224,"EPHEMERIS_TYPE":0,"CLASSIFICATION_TYPE":"U","NORAD_CAT_ID":48217,"ELEMENT_SET_NO":999,"REV_AT_EPOCH":23913,"BSTAR":-0.00046119,"MEAN_MOTION_DOT":-1.58e-06,"MEAN_MOTION_DDOT":0.0},{"OBJECT_NAME":"ONEWEB-0196","OBJECT_ID":"2021-031J","EPOCH":"2026-04-09T00:37:24.961440","MEAN_MOTION":13.14501762,"ECCENTRICITY":0.0001688,"INCLINATION":87.8938,"RA_OF_ASC_NODE":303.5119,"ARG_OF_PERICENTER":81.8505,"MEAN_ANOMALY":278.2816,"EPHEMERIS_TYPE":0,"CLASSIFICATION_TYPE":"U","NORAD_CAT_ID":48218,"ELEMENT_SET_NO":999,"REV_AT_EPOCH":23914,"BSTAR":0.00045209,"MEAN_MOTION_DOT":1.8e-06,"MEAN_MOTION_DDOT":0.0},{"OBJECT_NAME":"ONEWEB-0183","OBJECT_ID":"2021-031K","EPOCH":"2026-04-09T00:00:51.718176","MEAN_MOTION":13.14502075,"ECCENTRICITY":0.0001493,"INCLINATION":87.8933,"RA_OF_ASC_NODE":303.5164,"ARG_OF_PERICENTER":90.5992,"MEAN_ANOMALY":269.5309,"EPHEMERIS_TYPE":0,"CLASSIFICATION_TYPE":"U","NORAD_CAT_ID":48219,"ELEMENT_SET_NO":999,"REV_AT_EPOCH":23923,"BSTAR":0.00032894,"MEAN_MOTION_DOT":1.35e-06,"MEAN_MOTION_DDOT":0.0},{"OBJECT_NAME":"ONEWEB-0185","OBJECT_ID":"2021-031L","EPOCH":"2026-04-08T22:48:55.905120","MEAN_MOTION":13.14503768,"ECCENTRICITY":0.0001297,"INCLINATION":87.8935,"RA_OF_ASC_NODE":303.5133,"ARG_OF_PERICENTER":81.0755,"MEAN_ANOMALY":279.0522,"EPHEMERIS_TYPE":0,"CLASSIFICATION_TYPE":"U","NORAD_CAT_ID":48220,"ELEMENT_SET_NO":999,"REV_AT_EPOCH":23915,"BSTAR":0.00047301,"MEAN_MOTION_DOT":1.88e-06,"MEAN_MOTION_DDOT":0.0},{"OBJECT_NAME":"ONEWEB-0187","OBJECT_ID":"2021-031M","EPOCH":"2026-04-09T00:09:47.803392","MEAN_MOTION":13.14500905,"ECCENTRICITY":0.0001557,"INCLINATION":87.8922,"RA_OF_ASC_NODE":303.5302,"ARG_OF_PERICENTER":79.5406,"MEAN_ANOMALY":280.5899,"EPHEMERIS_TYPE":0,"CLASSIFICATION_TYPE":"U","NORAD_CAT_ID":48221,"ELEMENT_SET_NO":999,"REV_AT_EPOCH":23917,"BSTAR":0.00040398,"MEAN_MOTION_DOT":1.63e-06,"MEAN_MOTION_DDOT":0.0},{"OBJECT_NAME":"ONEWEB-0192","OBJECT_ID":"2021-031N","EPOCH":"2026-04-08T23:26:36.141216","MEAN_MOTION":13.14500993,"ECCENTRICITY":0.0001767,"INCLINATION":87.892,"RA_OF_ASC_NODE":303.525,"ARG_OF_PERICENTER":84.8076,"MEAN_ANOMALY":275.3256,"EPHEMERIS_TYPE":0,"CLASSIFICATION_TYPE":"U","NORAD_CAT_ID":48222,"ELEMENT_SET_NO":999,"REV_AT_EPOCH":23908,"BSTAR":-0.00053079,"MEAN_MOTION_DOT":-1.84e-06,"MEAN_MOTION_DDOT":0.0},{"OBJECT_NAME":"ONEWEB-0219","OBJECT_ID":"2021-031P","EPOCH":"2026-04-09T00:46:32.210400","MEAN_MOTION":13.14501563,"ECCENTRICITY":0.0001495,"INCLINATION":87.8936,"RA_OF_ASC_NODE":303.5022,"ARG_OF_PERICENTER":81.4219,"MEAN_ANOMALY":278.708,"EPHEMERIS_TYPE":0,"CLASSIFICATION_TYPE":"U","NORAD_CAT_ID":48223,"ELEMENT_SET_NO":999,"REV_AT_EPOCH":23929,"BSTAR":4.1318e-05,"MEAN_MOTION_DOT":2.8e-07,"MEAN_MOTION_DDOT":0.0},{"OBJECT_NAME":"ONEWEB-0202","OBJECT_ID":"2021-031Q","EPOCH":"2026-04-09T00:19:08.850432","MEAN_MOTION":13.14502235,"ECCENTRICITY":0.0002193,"INCLINATION":87.8935,"RA_OF_ASC_NODE":303.5152,"ARG_OF_PERICENTER":73.3513,"MEAN_ANOMALY":286.7857,"EPHEMERIS_TYPE":0,"CLASSIFICATION_TYPE":"U","NORAD_CAT_ID":48224,"ELEMENT_SET_NO":999,"REV_AT_EPOCH":23927,"BSTAR":0.00071878,"MEAN_MOTION_DOT":2.79e-06,"MEAN_MOTION_DDOT":0.0},{"OBJECT_NAME":"ONEWEB-0204","OBJECT_ID":"2021-031R","EPOCH":"2026-04-08T23:18:37.316736","MEAN_MOTION":13.14501867,"ECCENTRICITY":0.0001415,"INCLINATION":87.894,"RA_OF_ASC_NODE":303.5183,"ARG_OF_PERICENTER":92.7247,"MEAN_ANOMALY":267.4044,"EPHEMERIS_TYPE":0,"CLASSIFICATION_TYPE":"U","NORAD_CAT_ID":48225,"ELEMENT_SET_NO":999,"REV_AT_EPOCH":23916,"BSTAR":-0.00041351,"MEAN_MOTION_DOT":-1.41e-06,"MEAN_MOTION_DDOT":0.0},{"OBJECT_NAME":"ONEWEB-0205","OBJECT_ID":"2021-031S","EPOCH":"2026-04-08T22:43:13.478592","MEAN_MOTION":13.14501279,"ECCENTRICITY":0.0001558,"INCLINATION":87.8936,"RA_OF_ASC_NODE":303.5145,"ARG_OF_PERICENTER":82.98,"MEAN_ANOMALY":277.1507,"EPHEMERIS_TYPE":0,"CLASSIFICATION_TYPE":"U","NORAD_CAT_ID":48226,"ELEMENT_SET_NO":999,"REV_AT_EPOCH":23917,"BSTAR":0.0006002,"MEAN_MOTION_DOT":2.35e-06,"MEAN_MOTION_DDOT":0.0}]